{"type": "FeatureCollection", "features": [ {"type": "Feature", "properties": {"norad_id": 32432, "name": "FENGYUN 1C DEB", "group": "fengyun-1c-debris", "lat": -21.684300940021807, "lon": 31.308825648290554, "alt_km": 640.7068999045468, "timestamp": "2025-12-17T23:38:07.140379+00:00", "meta": {"OBJECT_NAME": "FENGYUN 1C DEB", "OBJECT_ID": "1999-025DAU", "EPOCH": "2025-12-17T08:51:18.264960", "MEAN_MOTION": 14.52538447, "ECCENTRICITY": 0.01726051, "INCLINATION": 98.1709, "RA_OF_ASC_NODE": 27.4337, "ARG_OF_PERICENTER": 291.3567, "MEAN_ANOMALY": 66.9285, "EPHEMERIS_TYPE": 0, "CLASSIFICATION_TYPE": "U", "NORAD_CAT_ID": 32432, "ELEMENT_SET_NO": 999, "REV_AT_EPOCH": 70762, "BSTAR": 0.0011196062, "MEAN_MOTION_DOT": 5.513e-05, "MEAN_MOTION_DDOT": 0}, "tle": {"line1": "1 32432U 99025DAU 25351.36896140  .00005513  00000+0  11196-2 0  9995", "line2": "2 32432  98.1709  27.4337 0172605 291.3567  66.9285 14.52538447707621"}}, "geometry": {"type": "Point", "coordinates": [31.308825648290554, -21.684300940021807]}}, {"type": "Feature", "properties": {"norad_id": 32440, "name": "FENGYUN 1C DEB", "group": "fengyun-1c-debris", "lat": 2.518163516627491, "lon": -153.50027960837224, "alt_km": 963.2993675254766, "timestamp": "2025-12-17T23:38:07.140389+00:00", "meta": {"OBJECT_NAME": "FENGYUN 1C DEB", "OBJECT_ID": "1999-025DBC", "EPOCH": "2025-12-12T07:47:51.906912", "MEAN_MOTION": 13.6125644, "ECCENTRICITY": 0.03219473, "INCLINATION": 99.1542, "RA_OF_ASC_NODE": 201.5922, "ARG_OF_PERICENTER": 91.933, "MEAN_ANOMALY": 271.871, "EPHEMERIS_TYPE": 0, "CLASSIFICATION_TYPE": "U", "NORAD_CAT_ID": 32440, "ELEMENT_SET_NO": 999, "REV_AT_EPOCH": 60280, "BSTAR": 0.0043210943, "MEAN_MOTION_DOT": 4.61e-05, "MEAN_MOTION_DDOT": 0}, "tle": {"line1": "1 32440U 99025DBC 25346.32490633  .00004610  00000+0  43211-2 0  9991", "line2": "2 32440  99.1542 201.5922 0321947  91.9330 271.8710 13.61256440602801"}}, "geometry": {"type": "Point", "coordinates": [-153.50027960837224, 2.518163516627491]}}, {"type": "Feature", "properties": {"norad_id": 32447, "name": "FENGYUN 1C DEB", "group": "fengyun-1c-debris", "lat": -7.465156000496073, "lon": -173.2261624242728, "alt_km": 966.3590654409882, "timestamp": "2025-12-17T23:38:07.140399+00:00", "meta": {"OBJECT_NAME": "FENGYUN 1C DEB", "OBJECT_ID": "1999-025DBK", "EPOCH": "2025-12-09T20:22:18.261408", "MEAN_MOTION": 13.96013309, "ECCENTRICITY": 0.00800272, "INCLINATION": 98.9313, "RA_OF_ASC_NODE": 0.0649, "ARG_OF_PERICENTER": 49.1812, "MEAN_ANOMALY": 311.6255, "EPHEMERIS_TYPE": 0, "CLASSIFICATION_TYPE": "U", "NORAD_CAT_ID": 32447, "ELEMENT_SET_NO": 999, "REV_AT_EPOCH": 67838, "BSTAR": 0.00036340481, "MEAN_MOTION_DOT": 4.69e-06, "MEAN_MOTION_DDOT": 0}, "tle": {"line1": "1 32447U 99025DBK 25343.84882247  .00000469  00000+0  36340-3 0  9992", "line2": "2 32447  98.9313   0.0649 0080027  49.1812 311.6255 13.96013309678386"}}, "geometry": {"type": "Point", "coordinates": [-173.2261624242728, -7.465156000496073]}}, {"type": "Feature", "properties": {"norad_id": 32451, "name": "FENGYUN 1C DEB", "group": "fengyun-1c-debris", "lat": 32.549761705268565, "lon": -34.34055996582746, "alt_km": 1052.6153283697868, "timestamp": "2025-12-17T23:38:07.140409+00:00", "meta": {"OBJECT_NAME": "FENGYUN 1C DEB", "OBJECT_ID": "1999-025DBP", "EPOCH": "2025-12-15T17:47:04.547904", "MEAN_MOTION": 13.86588617, "ECCENTRICITY": 0.01851329, "INCLINATION": 99.9706, "RA_OF_ASC_NODE": 329.7162, "ARG_OF_PERICENTER": 187.005, "MEAN_ANOMALY": 172.8511, "EPHEMERIS_TYPE": 0, "CLASSIFICATION_TYPE": "U", "NORAD_CAT_ID": 32451, "ELEMENT_SET_NO": 999, "REV_AT_EPOCH": 61806, "BSTAR": 0.001782357, "MEAN_MOTION_DOT": 2.321e-05, "MEAN_MOTION_DDOT": 0}, "tle": {"line1": "1 32451U 99025DBP 25349.74102486  .00002321  00000+0  17824-2 0  9996", "line2": "2 32451  99.9706 329.7162 0185132 187.0050 172.8511 13.86588617618067"}}, "geometry": {"type": "Point", "coordinates": [-34.34055996582746, 32.549761705268565]}}, {"type": "Feature", "properties": {"norad_id": 32453, "name": "FENGYUN 1C DEB", "group": "fengyun-1c-debris", "lat": -65.24152290331558, "lon": 60.854503639006246, "alt_km": 853.0350762182034, "timestamp": "2025-12-17T23:38:07.140419+00:00", "meta": {"OBJECT_NAME": "FENGYUN 1C DEB", "OBJECT_ID": "1999-025DBR", "EPOCH": "2025-12-17T00:12:08.739936", "MEAN_MOTION": 14.02261172, "ECCENTRICITY": 0.00962487, "INCLINATION": 99.3722, "RA_OF_ASC_NODE": 260.8349, "ARG_OF_PERICENTER": 194.1493, "MEAN_ANOMALY": 165.6972, "EPHEMERIS_TYPE": 0, "CLASSIFICATION_TYPE": "U", "NORAD_CAT_ID": 32453, "ELEMENT_SET_NO": 999, "REV_AT_EPOCH": 93488, "BSTAR": 0.00047652067, "MEAN_MOTION_DOT": 7.13e-06, "MEAN_MOTION_DDOT": 0}, "tle": {"line1": "1 32453U 99025DBR 25351.00843449  .00000713  00000+0  47652-3 0  9997", "line2": "2 32453  99.3722 260.8349 0096248 194.1493 165.6972 14.02261172934887"}}, "geometry": {"type": "Point", "coordinates": [60.854503639006246, -65.24152290331558]}}, {"type": "Feature", "properties": {"norad_id": 32455, "name": "FENGYUN 1C DEB", "group": "fengyun-1c-debris", "lat": 50.09064359451988, "lon": 19.874279691428004, "alt_km": 743.3736239729442, "timestamp": "2025-12-17T23:38:07.140430+00:00", "meta": {"OBJECT_NAME": "FENGYUN 1C DEB", "OBJECT_ID": "1999-025DBT", "EPOCH": "2025-12-15T19:17:51.115776", "MEAN_MOTION": 13.92483124, "ECCENTRICITY": 0.02358922, "INCLINATION": 101.7332, "RA_OF_ASC_NODE": 182.7306, "ARG_OF_PERICENTER": 137.6652, "MEAN_ANOMALY": 224.2971, "EPHEMERIS_TYPE": 0, "CLASSIFICATION_TYPE": "U", "NORAD_CAT_ID": 32455, "ELEMENT_SET_NO": 999, "REV_AT_EPOCH": 64458, "BSTAR": 0.0013497912, "MEAN_MOTION_DOT": 2.12e-05, "MEAN_MOTION_DDOT": 0}, "tle": {"line1": "1 32455U 99025DBT 25349.80406384  .00002120  00000+0  13498-2 0  9991", "line2": "2 32455 101.7332 182.7306 0235892 137.6652 224.2971 13.92483124644585"}}, "geometry": {"type": "Point", "coordinates": [19.874279691428004, 50.09064359451988]}}, {"type": "Feature", "properties": {"norad_id": 32456, "name": "FENGYUN 1C DEB", "group": "fengyun-1c-debris", "lat": 10.821969732618237, "lon": 131.45108044304766, "alt_km": 1385.9321440079893, "timestamp": "2025-12-17T23:38:07.140440+00:00", "meta": {"OBJECT_NAME": "FENGYUN 1C DEB", "OBJECT_ID": "1999-025DBU", "EPOCH": "2025-12-17T03:48:04.533120", "MEAN_MOTION": 13.35640436, "ECCENTRICITY": 0.03794971, "INCLINATION": 103.6656, "RA_OF_ASC_NODE": 133.0133, "ARG_OF_PERICENTER": 216.4895, "MEAN_ANOMALY": 140.98, "EPHEMERIS_TYPE": 0, "CLASSIFICATION_TYPE": "U", "NORAD_CAT_ID": 32456, "ELEMENT_SET_NO": 999, "REV_AT_EPOCH": 60675, "BSTAR": 0.0016364212, "MEAN_MOTION_DOT": 1.184e-05, "MEAN_MOTION_DDOT": 0}, "tle": {"line1": "1 32456U 99025DBU 25351.15838580  .00001184  00000+0  16364-2 0  9994", "line2": "2 32456 103.6656 133.0133 0379497 216.4895 140.9800 13.35640436606758"}}, "geometry": {"type": "Point", "coordinates": [131.45108044304766, 10.821969732618237]}}, {"type": "Feature", "properties": {"norad_id": 32458, "name": "FENGYUN 1C DEB", "group": "fengyun-1c-debris", "lat": -79.6250331522824, "lon": 131.89028786627833, "alt_km": 694.2638902344579, "timestamp": "2025-12-17T23:38:07.140450+00:00", "meta": {"OBJECT_NAME": "FENGYUN 1C DEB", "OBJECT_ID": "1999-025DBW", "EPOCH": "2025-12-17T07:38:45.791520", "MEAN_MOTION": 14.62340298, "ECCENTRICITY": 0.00400557, "INCLINATION": 99.0455, "RA_OF_ASC_NODE": 11.634, "ARG_OF_PERICENTER": 359.8936, "MEAN_ANOMALY": 0.2248, "EPHEMERIS_TYPE": 0, "CLASSIFICATION_TYPE": "U", "NORAD_CAT_ID": 32458, "ELEMENT_SET_NO": 999, "REV_AT_EPOCH": 67856, "BSTAR": 0.0011308111, "MEAN_MOTION_DOT": 5.724e-05, "MEAN_MOTION_DDOT": 0}, "tle": {"line1": "1 32458U 99025DBW 25351.31858555  .00005724  00000+0  11308-2 0  9995", "line2": "2 32458  99.0455  11.6340 0040055 359.8936   0.2248 14.62340298678565"}}, "geometry": {"type": "Point", "coordinates": [131.89028786627833, -79.6250331522824]}}, {"type": "Feature", "properties": {"norad_id": 32459, "name": "FENGYUN 1C DEB", "group": "fengyun-1c-debris", "lat": -32.786072811621175, "lon": 11.479497556982968, "alt_km": 894.2301988996433, "timestamp": "2025-12-17T23:38:07.140461+00:00", "meta": {"OBJECT_NAME": "FENGYUN 1C DEB", "OBJECT_ID": "1999-025DBX", "EPOCH": "2025-12-17T12:08:39.869664", "MEAN_MOTION": 14.42827808, "ECCENTRICITY": 0.02134522, "INCLINATION": 98.3021, "RA_OF_ASC_NODE": 5.6161, "ARG_OF_PERICENTER": 171.9284, "MEAN_ANOMALY": 188.5433, "EPHEMERIS_TYPE": 0, "CLASSIFICATION_TYPE": "U", "NORAD_CAT_ID": 32459, "ELEMENT_SET_NO": 999, "REV_AT_EPOCH": 94619, "BSTAR": 0.00036024714, "MEAN_MOTION_DOT": 1.532e-05, "MEAN_MOTION_DDOT": 0}, "tle": {"line1": "1 32459U 99025DBX 25351.50601701  .00001532  00000+0  36025-3 0  9993", "line2": "2 32459  98.3021   5.6161 0213452 171.9284 188.5433 14.42827808946191"}}, "geometry": {"type": "Point", "coordinates": [11.479497556982968, -32.786072811621175]}}, {"type": "Feature", "properties": {"norad_id": 32460, "name": "FENGYUN 1C DEB", "group": "fengyun-1c-debris", "lat": 80.65179978270035, "lon": 77.52435338127736, "alt_km": 798.9956707333859, "timestamp": "2025-12-17T23:38:07.140471+00:00", "meta": {"OBJECT_NAME": "FENGYUN 1C DEB", "OBJECT_ID": "1999-025DBY", "EPOCH": "2025-12-16T16:07:35.360256", "MEAN_MOTION": 13.89589165, "ECCENTRICITY": 0.01851829, "INCLINATION": 98.0198, "RA_OF_ASC_NODE": 135.3065, "ARG_OF_PERICENTER": 113.3101, "MEAN_ANOMALY": 248.7668, "EPHEMERIS_TYPE": 0, "CLASSIFICATION_TYPE": "U", "NORAD_CAT_ID": 32460, "ELEMENT_SET_NO": 999, "REV_AT_EPOCH": 65308, "BSTAR": 0.0008481014, "MEAN_MOTION_DOT": 1.158e-05, "MEAN_MOTION_DDOT": 0}, "tle": {"line1": "1 32460U 99025DBY 25350.67193704  .00001158  00000+0  84810-3 0  9990", "line2": "2 32460  98.0198 135.3065 0185182 113.3101 248.7668 13.89589165653088"}}, "geometry": {"type": "Point", "coordinates": [77.52435338127736, 80.65179978270035]}}]}